ALOS-4 (DAICHI-4)       
1 60182U 24123A   24291.54499296  .00006748  00000+0  90972-3 0  9999
2 60182  97.9225  26.4408 0001366 100.6069 259.5296 14.79467498 16032
